CTC2_L_00130001-01
1 13522U 22760UG  26037.47791667  .00000000  00000+0  00000-0 0  9994
2 13522  65.0000   0.0000 0000000   0.0000   0.0000 13.03091717    19
CTC2_L_00130001-02
1 13523U 24873PR  26037.47791667  .00000000  00000+0  00000-0 0  9992
2 13523  65.0000   0.0000 0000000   0.0000  90.0000 13.03091717    19
CTC2_L_00130001-03
1 13524U 24677MJ  26037.47791667  .00000000  00000+0  00000-0 0  9995
2 13524  65.0000   0.0000 0000000   0.0000 180.0000 13.03091717    10
CTC2_L_00130001-04
1 13525U 23542FH  26037.47791667  .00000000  00000+0  00000-0 0  9996
2 13525  65.0000   0.0000 0000000   0.0000 270.0000 13.03091717    11
CTC2_L_00130002-01
1 13526U 22812PQ  26037.47791667  .00000000  00000+0  00000-0 0  9996
2 13526  65.0000  12.0000 0000000   0.0000  12.0000 13.03091717    19
CTC2_L_00130002-02
1 13527U 22930BW  26037.47791667  .00000000  00000+0  00000-0 0  9998
2 13527  65.0000  12.0000 0000000   0.0000 102.0000 13.03091717    10
CTC2_L_00130002-03
1 13528U 22145ZY  26037.47791667  .00000000  00000+0  00000-0 0  9997
2 13528  65.0000  12.0000 0000000   0.0000 192.0000 13.03091717    10
CTC2_L_00130002-04
1 13529U 23084GU  26037.47791667  .00000000  00000+0  00000-0 0  9991
2 13529  65.0000  12.0000 0000000   0.0000 282.0000 13.03091717    11
CTC2_L_00130003-01
1 13530U 22101QC  26037.47791667  .00000000  00000+0  00000-0 0  9992
2 13530  65.0000  24.0000 0000000   0.0000  24.0000 13.03091717    10
CTC2_L_00130003-02
1 13531U 23580VF  26037.47791667  .00000000  00000+0  00000-0 0  9995
2 13531  65.0000  24.0000 0000000   0.0000 114.0000 13.03091717    11
CTC2_L_00130003-03
1 13532U 23794P   26037.47791667  .00000000  00000+0  00000-0 0  9993
2 13532  65.0000  24.0000 0000000   0.0000 204.0000 13.03091717    12
CTC2_L_00130003-04
1 13533U 26071QA  26037.47791667  .00000000  00000+0  00000-0 0  9995
2 13533  65.0000  24.0000 0000000   0.0000 294.0000 13.03091717    12
CTC2_L_00130004-01
1 13534U 23974WU  26037.47791667  .00000000  00000+0  00000-0 0  9995
2 13534  65.0000  36.0000 0000000   0.0000  36.0000 13.03091717    10
CTC2_L_00130004-02
1 13535U 26428N   26037.47791667  .00000000  00000+0  00000-0 0  9993
2 13535  65.0000  36.0000 0000000   0.0000 126.0000 13.03091717    11
CTC2_L_00130004-03
1 13536U 24407ZN  26037.47791667  .00000000  00000+0  00000-0 0  9999
2 13536  65.0000  36.0000 0000000   0.0000 216.0000 13.03091717    12
CTC2_L_00130004-04
1 13537U 26992KD  26037.47791667  .00000000  00000+0  00000-0 0  9991
2 13537  65.0000  36.0000 0000000   0.0000 306.0000 13.03091717    13
CTC2_L_00130005-01
1 13538U 25585DW  26037.47791667  .00000000  00000+0  00000-0 0  9999
2 13538  65.0000  48.0000 0000000   0.0000  48.0000 13.03091717    10
CTC2_L_00130005-02
1 13539U 25935YR  26037.47791667  .00000000  00000+0  00000-0 0  9999
2 13539  65.0000  48.0000 0000000   0.0000 138.0000 13.03091717    11
CTC2_L_00130005-03
1 13540U 25028HB  26037.47791667  .00000000  00000+0  00000-0 0  9994
2 13540  65.0000  48.0000 0000000   0.0000 228.0000 13.03091717    13
CTC2_L_00130005-04
1 13541U 26131WG  26037.47791667  .00000000  00000+0  00000-0 0  9991
2 13541  65.0000  48.0000 0000000   0.0000 318.0000 13.03091717    14
CTC2_L_00130006-01
1 13542U 22454SA  26037.47791667  .00000000  00000+0  00000-0 0  9996
2 13542  65.0000  60.0000 0000000   0.0000  60.0000 13.03091717    13
CTC2_L_00130006-02
1 13543U 24284QL  26037.47791667  .00000000  00000+0  00000-0 0  9990
2 13543  65.0000  60.0000 0000000   0.0000 150.0000 13.03091717    14
CTC2_L_00130006-03
1 13544U 22406KB  26037.47791667  .00000000  00000+0  00000-0 0  9995
2 13544  65.0000  60.0000 0000000   0.0000 240.0000 13.03091717    15
CTC2_L_00130006-04
1 13545U 23286ZF  26037.47791667  .00000000  00000+0  00000-0 0  9993
2 13545  65.0000  60.0000 0000000   0.0000 330.0000 13.03091717    16
CTC2_L_00130007-01
1 13546U 22094YR  26037.47791667  .00000000  00000+0  00000-0 0  9990
2 13546  65.0000  72.0000 0000000   0.0000  72.0000 13.03091717    13
CTC2_L_00130007-02
1 13547U 25447H   26037.47791667  .00000000  00000+0  00000-0 0  9996
2 13547  65.0000  72.0000 0000000   0.0000 162.0000 13.03091717    14
CTC2_L_00130007-03
1 13548U 26202HE  26037.47791667  .00000000  00000+0  00000-0 0  9997
2 13548  65.0000  72.0000 0000000   0.0000 252.0000 13.03091717    15
CTC2_L_00130007-04
1 13549U 24334HB  26037.47791667  .00000000  00000+0  00000-0 0  9992
2 13549  65.0000  72.0000 0000000   0.0000 342.0000 13.03091717    16
CTC2_L_00130008-01
1 13550U 22032Z   26037.47791667  .00000000  00000+0  00000-0 0  9997
2 13550  65.0000  84.0000 0000000   0.0000  84.0000 13.03091717    14
CTC2_L_00130008-02
1 13551U 24943EP  26037.47791667  .00000000  00000+0  00000-0 0  9991
2 13551  65.0000  84.0000 0000000   0.0000 174.0000 13.03091717    15
CTC2_L_00130008-03
1 13552U 24773ZV  26037.47791667  .00000000  00000+0  00000-0 0  9993
2 13552  65.0000  84.0000 0000000   0.0000 264.0000 13.03091717    16
CTC2_L_00130008-04
1 13553U 22044CX  26037.47791667  .00000000  00000+0  00000-0 0  9993
2 13553  65.0000  84.0000 0000000   0.0000 354.0000 13.03091717    17
CTC2_L_00130009-01
1 13554U 25810IA  26037.47791667  .00000000  00000+0  00000-0 0  9998
2 13554  65.0000  96.0000 0000000   0.0000  96.0000 13.03091717    14
CTC2_L_00130009-02
1 13555U 26778DL  26037.47791667  .00000000  00000+0  00000-0 0  9993
2 13555  65.0000  96.0000 0000000   0.0000 186.0000 13.03091717    15
CTC2_L_00130009-03
1 13556U 22178ME  26037.47791667  .00000000  00000+0  00000-0 0  9994
2 13556  65.0000  96.0000 0000000   0.0000 276.0000 13.03091717    16
CTC2_L_00130009-04
1 13557U 23927AX  26037.47791667  .00000000  00000+0  00000-0 0  9998
2 13557  65.0000  96.0000 0000000   0.0000   6.0000 13.03091717    18
CTC2_L_00130010-01
1 13558U 25263TI  26037.47791667  .00000000  00000+0  00000-0 0  9994
2 13558  65.0000 108.0000 0000000   0.0000 108.0000 13.03091717    16
CTC2_L_00130010-02
1 13559U 24506DS  26037.47791667  .00000000  00000+0  00000-0 0  9994
2 13559  65.0000 108.0000 0000000   0.0000 198.0000 13.03091717    16
CTC2_L_00130010-03
1 13560U 22692HU  26037.47791667  .00000000  00000+0  00000-0 0  9990
2 13560  65.0000 108.0000 0000000   0.0000 288.0000 13.03091717    18
CTC2_L_00130010-04
1 13561U 26338WB  26037.47791667  .00000000  00000+0  00000-0 0  9992
2 13561  65.0000 108.0000 0000000   0.0000  18.0000 13.03091717    10
CTC2_L_00130011-01
1 13562U 22050BJ  26037.47791667  .00000000  00000+0  00000-0 0  9990
2 13562  65.0000 120.0000 0000000   0.0000 120.0000 13.03091717    19
CTC2_L_00130011-02
1 13563U 22713SI  26037.47791667  .00000000  00000+0  00000-0 0  9997
2 13563  65.0000 120.0000 0000000   0.0000 210.0000 13.03091717    10
CTC2_L_00130011-03
1 13564U 23960HM  26037.47791667  .00000000  00000+0  00000-0 0  9993
2 13564  65.0000 120.0000 0000000   0.0000 300.0000 13.03091717    11
CTC2_L_00130011-04
1 13565U 22740TG  26037.47791667  .00000000  00000+0  00000-0 0  9999
2 13565  65.0000 120.0000 0000000   0.0000  30.0000 13.03091717    12
CTC2_L_00130012-01
1 13566U 25336YC  26037.47791667  .00000000  00000+0  00000-0 0  9994
2 13566  65.0000 132.0000 0000000   0.0000 132.0000 13.03091717    19
CTC2_L_00130012-02
1 13567U 22725SM  26037.47791667  .00000000  00000+0  00000-0 0  9994
2 13567  65.0000 132.0000 0000000   0.0000 222.0000 13.03091717    10
CTC2_L_00130012-03
1 13568U 23189E   26037.47791667  .00000000  00000+0  00000-0 0  9990
2 13568  65.0000 132.0000 0000000   0.0000 312.0000 13.03091717    11
CTC2_L_00130012-04
1 13569U 25787VV  26037.47791667  .00000000  00000+0  00000-0 0  9997
2 13569  65.0000 132.0000 0000000   0.0000  42.0000 13.03091717    12
CTC2_L_00130013-01
1 13570U 25082SN  26037.47791667  .00000000  00000+0  00000-0 0  9997
2 13570  65.0000 144.0000 0000000   0.0000 144.0000 13.03091717    10
CTC2_L_00130013-02
1 13571U 26943YZ  26037.47791667  .00000000  00000+0  00000-0 0  9995
2 13571  65.0000 144.0000 0000000   0.0000 234.0000 13.03091717    11
CTC2_L_00130013-03
1 13572U 23940KW  26037.47791667  .00000000  00000+0  00000-0 0  9990
2 13572  65.0000 144.0000 0000000   0.0000 324.0000 13.03091717    12
CTC2_L_00130013-04
1 13573U 24016HV  26037.47791667  .00000000  00000+0  00000-0 0  9996
2 13573  65.0000 144.0000 0000000   0.0000  54.0000 13.03091717    13
CTC2_L_00130014-01
1 13574U 25823SE  26037.47791667  .00000000  00000+0  00000-0 0  9994
2 13574  65.0000 156.0000 0000000   0.0000 156.0000 13.03091717    10
CTC2_L_00130014-02
1 13575U 24851YZ  26037.47791667  .00000000  00000+0  00000-0 0  9995
2 13575  65.0000 156.0000 0000000   0.0000 246.0000 13.03091717    11
CTC2_L_00130014-03
1 13576U 25246WR  26037.47791667  .00000000  00000+0  00000-0 0  9995
2 13576  65.0000 156.0000 0000000   0.0000 336.0000 13.03091717    12
CTC2_L_00130014-04
1 13577U 22300YG  26037.47791667  .00000000  00000+0  00000-0 0  9994
2 13577  65.0000 156.0000 0000000   0.0000  66.0000 13.03091717    13
CTC2_L_00130015-01
1 13578U 25598ZW  26037.47791667  .00000000  00000+0  00000-0 0  9997
2 13578  65.0000 168.0000 0000000   0.0000 168.0000 13.03091717    10
CTC2_L_00130015-02
1 13579U 24900TO  26037.47791667  .00000000  00000+0  00000-0 0  9994
2 13579  65.0000 168.0000 0000000   0.0000 258.0000 13.03091717    11
CTC2_L_00130015-03
1 13580U 24155FT  26037.47791667  .00000000  00000+0  00000-0 0  9998
2 13580  65.0000 168.0000 0000000   0.0000 348.0000 13.03091717    13
CTC2_L_00130015-04
1 13581U 25171AW  26037.47791667  .00000000  00000+0  00000-0 0  9998
2 13581  65.0000 168.0000 0000000   0.0000  78.0000 13.03091717    14
CTC2_L_00130016-01
1 13582U 22074YH  26037.47791667  .00000000  00000+0  00000-0 0  9998
2 13582  65.0000 180.0000 0000000   0.0000 180.0000 13.03091717    13
CTC2_L_00130016-02
1 13583U 22087FS  26037.47791667  .00000000  00000+0  00000-0 0  9993
2 13583  65.0000 180.0000 0000000   0.0000 270.0000 13.03091717    14
